H1 CPF  1  DLR 2022 10 26 10  7992 technosat            
H2  1704205 6203    42829 2022 10 26 00 00 00 2022 11 02 00 00 00    60 1 1  0 0 0
H9
10 0 59884  72000.000000  0      -6735795.290        886158.396      -1565972.944
10 0 59884  72060.000000  0      -6809721.479        986700.172      -1124714.575
10 0 59884  72120.000000  0      -6854057.739       1083597.377       -678677.590
10 0 59884  72180.000000  0      -6868650.581       1176181.478       -229757.053
10 0 59884  72240.000000  0      -6853478.960       1263801.531        220139.525
10 0 59884  72300.000000  0      -6808654.256       1345828.143        669100.499
10 0 59884  72360.000000  0      -6734419.596       1421657.342       1115218.463
10 0 59884  72420.000000  0      -6631148.520       1490714.317       1556598.600
10 0 59884  72480.000000  0      -6499343.019       1552457.006       1991366.972
10 0 59884  72540.000000  0      -6339630.933       1606379.500       2417678.708
10 0 59884  72600.000000  0      -6152762.748       1652015.253       2833726.007
10 0 59884  72660.000000  0      -5939607.797       1688940.069       3237745.975
10 0 59884  72720.000000  0      -5701149.888       1716774.856       3628028.163
10 0 59884  72780.000000  0      -5438482.447       1735188.144       4002921.813
10 0 59884  72840.000000  0      -5152803.193       1743898.341       4360842.809
10 0 59884  72900.000000  0      -4845408.363       1742675.729       4700280.283
10 0 59884  72960.000000  0      -4517686.551       1731344.174       5019802.841
10 0 59884  73020.000000  0      -4171112.208       1709782.561       5318064.445
10 0 59884  73080.000000  0      -3807238.780       1677925.943       5593809.903
10 0 59884  73140.000000  0      -3427691.575       1635766.378       5845879.962
10 0 59884  73200.000000  0      -3034160.318       1583353.510       6073216.030
10 0 59884  73260.000000  0      -2628391.407       1520794.834       6274864.360
10 0 59884  73320.000000  0      -2212180.052       1448255.628       6449979.763
10 0 59884  73380.000000  0      -1787362.244       1365958.590       6597828.877
10 0 59884  73440.000000  0      -1355806.645       1274183.191       6717792.938
10 0 59884  73500.000000  0       -919406.430       1173264.758       6809370.107
10 0 59884  73560.000000  0       -480071.097       1063593.259       6872177.383
10 0 59884  73620.000000  0        -39718.211        945611.791       6905952.069
10 0 59884  73680.000000  0        399734.831        819814.798       6910552.764
10 0 59884  73740.000000  0        836379.019        686746.034       6885959.913
10 0 59884  73800.000000  0       1268321.890        546996.264       6832275.879
10 0 59884  73860.000000  0       1693695.601        401200.688       6749724.576
10 0 59884  73920.000000  0       2110664.884        250036.129       6638650.637
10 0 59884  73980.000000  0       2517434.885         94217.969       6499518.182
10 0 59884  74040.000000  0       2912258.896        -65503.163       6332909.077
10 0 59884  74100.000000  0       3293445.868       -228344.895       6139520.664
10 0 59884  74160.000000  0       3659367.671       -393496.826       5920163.079
10 0 59884  74220.000000  0       4008466.134       -560124.453       5675756.111
10 0 59884  74280.000000  0       4339259.779       -727373.268       5407325.606
10 0 59884  74340.000000  0       4650350.271       -894373.020       5115999.467
10 0 59884  74400.000000  0       4940428.577      -1060242.114       4803003.157
10 0 59884  74460.000000  0       5208280.686      -1224092.100       4469654.743
10 0 59884  74520.000000  0       5452792.977      -1385032.291       4117359.594
10 0 59884  74580.000000  0       5672957.169      -1542174.497       3747604.598
10 0 59884  74640.000000  0       5867874.798      -1694637.743       3361951.997
10 0 59884  74700.000000  0       6036761.192      -1841553.061       2962032.863
10 0 59884  74760.000000  0       6178948.926      -1982068.256       2549540.218
10 0 59884  74820.000000  0       6293890.740      -2115352.639       2126221.857
10 0 59884  74880.000000  0       6381161.894      -2240601.701       1693872.894
10 0 59884  74940.000000  0       6440462.006      -2357041.692       1254328.048
10 0 59884  75000.000000  0       6471616.246      -2463934.121        809453.636
10 0 59884  75060.000000  0       6474575.857      -2560580.085        361139.463
10 0 59884  75120.000000  0       6449418.171      -2646324.391        -88709.418
10 0 59884  75180.000000  0       6396345.976      -2720559.500       -538181.065
10 0 59884  75240.000000  0       6315686.237      -2782729.252       -985365.075
10 0 59884  75300.000000  0       6207888.159      -2832332.345      -1428360.976
10 0 59884  75360.000000  0       6073520.680      -2868925.513      -1865286.525
10 0 59884  75420.000000  0       5913269.425      -2892126.410      -2294285.910
10 0 59884  75480.000000  0       5727933.113      -2901616.182      -2713537.838
10 0 59884  75540.000000  0       5518419.399      -2897141.709      -3121263.434
10 0 59884  75600.000000  0       5285740.231      -2878517.539      -3515733.884
10 0 59884  75660.000000  0       5031006.773      -2845627.487      -3895277.830
10 0 59884  75720.000000  0       4755423.880      -2798425.878      -4258288.534
10 0 59884  75780.000000  0       4460284.107      -2736938.413      -4603230.706
10 0 59884  75840.000000  0       4146961.342      -2661262.668      -4928646.924
10 0 59884  75900.000000  0       3816904.130      -2571568.219      -5233163.656
10 0 59884  75960.000000  0       3471628.737      -2468096.402      -5515496.846
10 0 59884  76020.000000  0       3112712.043      -2351159.757      -5774457.085
10 0 59884  76080.000000  0       2741784.251      -2221141.128      -6008954.431
10 0 59884  76140.000000  0       2360521.400      -2078492.433      -6218002.850
10 0 59884  76200.000000  0       1970637.650      -1923733.047      -6400724.197
10 0 59884  76260.000000  0       1573877.456      -1757447.812      -6556351.677
10 0 59884  76320.000000  0       1172007.707      -1580284.757      -6684232.756
10 0 59884  76380.000000  0        766809.914      -1392952.578      -6783831.647
10 0 59884  76440.000000  0        360072.330      -1196217.791      -6854731.416
10 0 59884  76500.000000  0        -46417.903       -990901.560      -6896635.513
10 0 59884  76560.000000  0       -450882.463       -777876.317      -6909368.865
10 0 59884  76620.000000  0       -851559.538       -558062.111      -6892878.618
10 0 59884  76680.000000  0      -1246711.480       -332422.650      -6847234.316
10 0 59884  76740.000000  0      -1634632.253       -101961.104      -6772627.571
10 0 59884  76800.000000  0      -2013654.713        132284.280      -6669371.293
10 0 59884  76860.000000  0      -2382157.682        369244.769      -6537898.467
10 0 59884  76920.000000  0      -2738572.809        607825.937      -6378760.506
10 0 59884  76980.000000  0      -3081391.222        846912.654      -6192625.138
10 0 59884  77040.000000  0      -3409169.943       1085374.216      -5980273.874
10 0 59884  77100.000000  0      -3720538.097       1322069.610      -5742598.976
10 0 59884  77160.000000  0      -4014202.768       1555852.897      -5480599.935
10 0 59884  77220.000000  0      -4288954.510       1785578.733      -5195379.560
10 0 59884  77280.000000  0      -4543672.561       2010108.024      -4888139.559
10 0 59884  77340.000000  0      -4777329.617       2228313.558      -4560175.613
10 0 59884  77400.000000  0      -4988996.159       2439085.622      -4212872.074
10 0 59884  77460.000000  0      -5177844.370       2641337.613      -3847696.298
10 0 59884  77520.000000  0      -5343151.618       2834011.615      -3466192.581
10 0 59884  77580.000000  0      -5484303.499       3016083.905      -3069975.731
10 0 59884  77640.000000  0      -5600796.365       3186570.411      -2660724.241
10 0 59884  77700.000000  0      -5692239.296       3344531.992      -2240173.155
10 0 59884  77760.000000  0      -5758355.568       3489079.558      -1810106.639
10 0 59884  77820.000000  0      -5798983.566       3619378.966      -1372350.255
10 0 59884  77880.000000  0      -5814077.084       3734655.666       -928763.036
10 0 59884  77940.000000  0      -5803705.120       3834199.122       -481229.443
10 0 59884  78000.000000  0      -5768051.141       3917366.935        -31651.117
10 0 59884  78060.000000  0      -5707411.759       3983588.658        418061.516
10 0 59884  78120.000000  0      -5622194.745       4032369.179        865997.687
10 0 59884  78180.000000  0      -5512916.542       4063291.760       1310254.588
10 0 59884  78240.000000  0      -5380199.282       4076020.739       1748945.741
10 0 59884  78300.000000  0      -5224767.200       4070303.721       2180209.189
10 0 59884  78360.000000  0      -5047442.753       4045973.489       2602215.491
10 0 59884  78420.000000  0      -4849142.209       4002949.488       3013175.723
10 0 59884  78480.000000  0      -4630870.762       3941238.788       3411349.183
10 0 59884  78540.000000  0      -4393717.273       3860936.651       3795050.814
10 0 59884  78600.000000  0      -4138848.659       3762226.621       4162658.333
10 0 59884  78660.000000  0      -3867504.031       3645380.217       4512619.008
10 0 59884  78720.000000  0      -3580988.529       3510756.284       4843456.183
10 0 59884  78780.000000  0      -3280666.795       3358799.827       5153775.395
10 0 59884  78840.000000  0      -2967956.349       3190040.460       5442270.053
10 0 59884  78900.000000  0      -2644320.758       3005090.446       5707726.755
10 0 59884  78960.000000  0      -2311262.682       2804642.377       5949030.151
10 0 59884  79020.000000  0      -1970316.815       2589466.482       6165167.412
10 0 59884  79080.000000  0      -1623042.700       2360407.524       6355232.213
10 0 59884  79140.000000  0      -1271017.561       2118381.374       6518428.148
99
